country	name	employee	site	city	lat	long
FRANCE	ARKEMA	8	SIEGE SOCIAL	COLOMBES CEDEX	48.9220615	2.2533313
CHINE	ARKEMA (CHANGSHU) CHEMICAL COMPANY LIMITED	77	USINE DE PRODUCTION	CHANGSHU CITY, JIANGSU PROVINCE	31.7879072	120.7636612
CHINE	ARKEMA (CHANGSHU) FLUOROCHEMICALS CO LTD	267	USINE DE PRODUCTION	CHANGSHU CITY, JIANGSU PROVINCE	31.7879072	120.7636612
CHINE	ARKEMA (CHANGSHU) FLUOROCHEMICALS CO LTD	63	CENTRE R&D	CHANGSHU	31.7879072	120.7636612
CHINE	ARKEMA (CHANGSHU) POLYAMIDES CO. LTD	57	USINE DE PRODUCTION	SHANGHAI, CHINA	31.0312782	121.6854568
CHINE	ARKEMA (CHINA) INVESTMENT CO. LTD	15	SIEGE SOCIAL	BEIJING	39.8929867	116.4737288
CHINE	ARKEMA (CHINA) INVESTMENT CO. LTD CHANGSHU BRANCH	242	USINE DE PRODUCTION	CHANGSHU CITY,JIANGSU POVINCE	31.7879072	120.7636612
CHINE	ARKEMA (CHINA) INVESTMENT CO. LTD GUANGZHOU BRANCH	31	AGENCE COMMERCIALE	GUANGZHOU,GUANGDONG PROVINCE	23.1475722	113.2880602
CHINE	ARKEMA (CHINA) INVESTMENT CO. LTD SHANGHAI BRANCH	231	SIEGE SOCIAL	SHANGHAI	31.2776332	121.4453451
CHINE	ARKEMA (SHANGHAI) DISTRIBUTION CO. LTD	3	SIEGE SOCIAL	SHANGHAI	31.3329321	121.6046571
CHINE	ARKEMA (SUZHOU) POLYAMIDES CO, LTD	201	USINE DE PRODUCTION	ZHANG JIA GANG	31.7612727	120.6382072
BELGIQUE	ARKEMA ANTWERP	44	USINE DE PRODUCTION	ZWINDRECHT	51.2164116	4.3335905
ALGERIE	ARKEMA BUREAU LIAISON ALGER	4	SIEGE SOCIAL	ALGER	36.753768	3.0587561
PAYS-BAS	ARKEMA BV	33	SIEGE SOCIAL	VONDELINGENPLAAT / ROTTERDAM	51.8923144	4.3380597
PAYS-BAS	ARKEMA BV	67	USINE DE PRODUCTION	ROTTERDAM	51.8923144	4.3380597
PAYS-BAS	ARKEMA BV	22	USINE DE PRODUCTION	BRUMMEN	52.1030765	6.153347999999999
PAYS-BAS	ARKEMA BV	66	USINE DE PRODUCTION	RITTHEM / VLISSINGEN-OOST	51.4483073	3.6830563
CANADA	ARKEMA CANADA INC	53	USINE DE PRODUCTION	BECANCOUR	46.3867391	-72.3690979
CANADA	ARKEMA CANADA INC	10	AGENCE COMMERCIALE	BURLINGTON	43.3955658	-79.7592638
ARABIE SAOUDITE	ARKEMA CHEMICAL SAUDI ARABIA	15	USINE DE PRODUCTION	DAMMAM	26.4206828	50.0887943
INDE	ARKEMA CHEMICALS INDIA PRIVATE LTD	126	SIEGE SOCIAL	NAVI MUMBAI	19.0344647	73.0110096
CHINE	ARKEMA CO. LTD	9	AGENCE COMMERCIALE	HONG KONG	35.86166	104.195397
MALAISIE	ARKEMA COATING RESINS MALAYSIA SDN. BHD.	150	USINE DE PRODUCTION	MALAYSIA	1.494907	103.9376021
COLOMBIE	ARKEMA COLOMBIA S.A.S	6	SIEGE SOCIAL	MEDELLIN COLOMBIA	6.2476376	-75.56581530000001
TAIWAN	ARKEMA COMPANY LIMITED TAIWAN BRANCH	15	AGENCE COMMERCIALE	TAIPEI	25.0552958	121.5541264
CHINE	ARKEMA DAIKIN ADVANCED FLUOROCHEMICAL (CHANGSHU) CO LTD	58	USINE DE PRODUCTION	JIANGSU CHANGSHU	31.7879072	120.7636612
FRANCE	ARKEMA FRANCE	73	USINE DE PRODUCTION	BALAN	45.83316	5.096755
FRANCE	ARKEMA FRANCE	387	USINE DE PRODUCTION	SAINT AVOLD CEDEX	49.104408	6.705793
FRANCE	ARKEMA FRANCE	389	CENTRE TECHNIQUE	 PIERRE BENITE	45.7026039	4.8245191
FRANCE	ARKEMA FRANCE	18	USINE DE PRODUCTION	CHATEAUROUX	46.8031198	1.6926546
FRANCE	ARKEMA FRANCE	160	USINE DE PRODUCTION	SAINT LAURENT-BLANGY CEDEX	50.300542	2.801689
FRANCE	ARKEMA FRANCE	131	USINE DE PRODUCTION	HONFLEUR CEDEX	49.418762	0.233262
FRANCE	ARKEMA FRANCE	371	USINE DE PRODUCTION	JARRIE	45.0943968	5.7403974
FRANCE	ARKEMA FRANCE	175	USINE DE PRODUCTION	LA CHAMBRE	45.358463	6.301654
FRANCE	ARKEMA FRANCE	165	CENTRE R&D	LACQ	43.413249	-0.61914
FRANCE	ARKEMA FRANCE	343	USINE DE PRODUCTION	LACQ	43.413249	-0.61914
FRANCE	ARKEMA FRANCE	152	USINE DE PRODUCTION	LANNEMEZAN CEDEX	43.032934	0.397571
FRANCE	ARKEMA FRANCE	314	USINE DE PRODUCTION	MARSEILLE CEDEX 11	43.3068716	5.4023705
FRANCE	ARKEMA FRANCE	287	USINE DE PRODUCTION	MONT	43.433921	-0.65154
FRANCE	ARKEMA FRANCE	222	CENTRE R&D	PIERRE BENITE CEDEX	45.7030349	4.821038199999999
FRANCE	ARKEMA FRANCE	407	USINE DE PRODUCTION	PIERRE BENITE CEDEX	45.7030349	4.821038199999999
FRANCE	ARKEMA FRANCE	223	USINE DE PRODUCTION	SAINT AUBAN	43.8460788	6.7321901
FRANCE	ARKEMA FRANCE	282	CENTRE R&D	SERQUIGNY	49.10988140000001	0.7055823
FRANCE	ARKEMA FRANCE	409	USINE DE PRODUCTION	SERQUIGNY	49.10988140000001	0.7055823
FRANCE	ARKEMA FRANCE	865	SIEGE SOCIAL	COLOMBES CEDEX	48.9220615	2.2533313
FRANCE	ARKEMA FRANCE	87	CENTRE R&D	VERNEUIL EN HALATTE	49.2667185	2.5271526
FRANCE	ARKEMA FRANCE	143	USINE DE PRODUCTION	RIEUX CEDEX	49.298347	2.518599
EGYPTE	ARKEMA FRANCE REPRESENTATIVE OFFICE - EGYPT	12	SIEGE SOCIAL	CAIRO	30.0444196	31.2357116
GABON	ARKEMA GABON	8	AGENCE COMMERCIALE	PORT GENTIL	-0.7292634	8.7931878
ALLEMAGNE	ARKEMA GMBH	125	USINE DE PRODUCTION	ZWICKAU	50.7017384	12.4951376
ALLEMAGNE	ARKEMA GMBH	74	SIEGE SOCIAL	DÜSSELDORF	51.2738092	6.7421871
ALLEMAGNE	ARKEMA GMBH	156	USINE DE PRODUCTION	GÜNZBURG	48.4707826	10.278213
ALLEMAGNE	ARKEMA GMBH	55	USINE DE PRODUCTION	LEUNA	51.3228697	12.0820163
CHINE	ARKEMA HYDROGEN PEROXIDE CO. LTD SHANGHAI	75	USINE DE PRODUCTION	SHANGHAI	31.0808739	121.4190899
ETATS-UNIS	ARKEMA INC	42	USINE DE PRODUCTION	ALSIP, ILLINOIS	41.6685425	-87.7271123
ETATS-UNIS	ARKEMA INC	103	CENTRE R&D	CARY, NC	35.7698044	-78.78162189999999
ETATS-UNIS	ARKEMA INC	45	USINE DE PRODUCTION	HAHNVILLE, LA	29.9765931	-90.40897079999999
ETATS-UNIS	ARKEMA INC	36	USINE DE PRODUCTION	TORRANCE, CA	33.8409696	-118.3520389
ETATS-UNIS	ARKEMA INC	4	USINE DE PRODUCTION	COURTLAND, VA	36.7162613	-77.06801949999999
ETATS-UNIS	ARKEMA INC	125	USINE DE PRODUCTION	BEAUMONT, TX	30.0802412	-94.0997344
ETATS-UNIS	ARKEMA INC	63	USINE DE PRODUCTION	BIRDSBORO, PA	40.2645371	-75.8040852
ETATS-UNIS	ARKEMA INC	39	USINE DE PRODUCTION	BLOOMING PRAIRIE, MN	43.8666294	-93.0488091
ETATS-UNIS	ARKEMA INC	139	USINE DE PRODUCTION	BRISTOL, PA	40.1006661	-74.8518311
ETATS-UNIS	ARKEMA INC	271	USINE DE PRODUCTION	CALVERT CITY, KY	37.0508193	-88.381958
ETATS-UNIS	ARKEMA INC	143	USINE DE PRODUCTION	PASADENA, TX	29.6343793	-95.07027939999999
ETATS-UNIS	ARKEMA INC	655	SIEGE SOCIAL	PHILADELPHIA, PA	39.9531865	-75.1749671
ETATS-UNIS	ARKEMA INC	49	USINE DE PRODUCTION	CROSBY, TX	29.9118885	-95.0621512
ETATS-UNIS	ARKEMA INC	95	USINE DE PRODUCTION	GENESEO, NY	42.795896	-77.816947
ETATS-UNIS	ARKEMA INC	30	USINE DE PRODUCTION	GRAND RAPIDS	42.9274782	-85.6537627
ETATS-UNIS	ARKEMA INC	63	USINE DE PRODUCTION	HOUSTON, TX	29.7690048	-95.1744903
ETATS-UNIS	ARKEMA INC	79	USINE DE PRODUCTION	LOUISVILLE, KY	38.2	-85.7
ETATS-UNIS	ARKEMA INC	58	USINE DE PRODUCTION	MEMPHIS, TN	35.2368232	-90.0186555
ETATS-UNIS	ARKEMA INC	106	USINE DE PRODUCTION	AXIS, AL	30.9297926	-88.02726469999999
ETATS-UNIS	ARKEMA INC	20	USINE DE PRODUCTION	NORTH KANSAS CITY	39.1584696	-94.5727598
ETATS-UNIS	ARKEMA INC	14	SIEGE SOCIAL	PINEVILLE, LOUISIANA	31.3224044	-92.4343035
ETATS-UNIS	ARKEMA INC	57	USINE DE PRODUCTION	CHATHAM	36.82569429999999	-79.3980806
ETATS-UNIS	ARKEMA INC	88	USINE DE PRODUCTION	EXTON	40.0325817	-75.6274583
ETATS-UNIS	ARKEMA INC	76	USINE DE PRODUCTION	WEST CHESTER	39.9606643	-75.6054882
SUISSE	ARKEMA INTERNATIONAL	98	SIEGE SOCIAL	GENÈVE 3	46.2003242	6.1530384
HONGRIE	ARKEMA KFT	7	AGENCE COMMERCIALE	BUDAPEST	47.497912	19.040235
TURQUIE	ARKEMA KIMYA SANAYI VE TICARET A.S	17	AGENCE COMMERCIALE	ISTANBUL	41.0694095	28.9856113
JAPON	ARKEMA KK	36	SIEGE SOCIAL	TOKYO	35.6702509	139.7569024
JAPON	ARKEMA KK	20	CENTRE R&D	KYOTO	34.9953362	135.7372933
JAPON	ARKEMA KK	8	CENTRE TECHNIQUE	KANAGAWA	35.45346070000001	139.5974053
CORÉE DU SUD	ARKEMA KOREA LTD	21	USINE DE PRODUCTION	JINHAE	35.1269655	128.7080127
CORÉE DU SUD	ARKEMA KOREA LTD	39	SIEGE SOCIAL	SEOUL	37.566535	126.9779692
MEXIQUE	ARKEMA MEXICO SERVICIOS S.A. DE C.V.	55	USINE DE PRODUCTION	IXHUATLAN DEL SURESTE VERACRUZ	18.07206	-94.4053497
MEXIQUE	ARKEMA MEXICO SERVICIOS S.A. DE C.V.	139	USINE DE PRODUCTION	H. MATAMOROS	25.8401137	-97.4367396
MEXIQUE	ARKEMA MEXICO SERVICIOS S.A. DE C.V.	41	SIEGE SOCIAL	TLALNEPANTLA ESTADO DE MEXICO	19.5292557	-99.2044432
ÉMIRATS ARABES UNIS	ARKEMA MIDDLE EAST DMCC (DUBAI)	26	AGENCE COMMERCIALE	MENA	25.1135421	55.201837
INDE	ARKEMA PEROXIDES INDIA PRIVATE LIMITED	2	AGENCE COMMERCIALE	MUMBAI	19.0217224	72.837479
INDE	ARKEMA PEROXIDES INDIA PRIVATE LIMITED	49	USINE DE PRODUCTION	SEMMANKUPPAM	11.6473923	79.7398563
INDE	ARKEMA PEROXIDES INDIA PRIVATE LIMITED	9	SIEGE SOCIAL	CHENNAI	13.0366742	80.25167429999999
SINGAPOUR	ARKEMA PTE LTD (SINGAPORE)	58	SIEGE SOCIAL	SINGAPORE	1.284457	103.780115
THAILANDE	ARKEMA PTE LTD (THAILANDE) BRANCH OFFICE IN BANGKOK	4	AGENCE COMMERCIALE	BANGKOK	13.7262395	100.5267991
BRÉSIL	ARKEMA QUIMICA LTDA (BRASIL)	1	AGENCE COMMERCIALE	MANAUS	-3.0462589	-59.99207559999999
BRÉSIL	ARKEMA QUIMICA LTDA (BRASIL)	3	AGENCE COMMERCIALE	CAMAÇARI - BA	-12.7331327	-38.28558580000001
BRÉSIL	ARKEMA QUIMICA LTDA (BRASIL)	45	USINE DE PRODUCTION	RIO CLARO - SP	-22.3580966	-47.5544774
BRÉSIL	ARKEMA QUIMICA LTDA (BRASIL)	3	AGENCE COMMERCIALE	RIO DE JANEIRO	-22.9994618	-43.3593137
BRÉSIL	ARKEMA QUIMICA LTDA (BRASIL)	68	SIEGE SOCIAL	SÃO PAULO - SP	-23.5905071	-46.65001720000001
ESPAGNE	ARKEMA QUIMICA,S.A.U	63	USINE DE PRODUCTION	MOLLET DEL VALLÉS	41.5450948	2.2089109
ESPAGNE	ARKEMA QUIMICA,S.A.U	138	USINE DE PRODUCTION	SANT CELONI	41.6826815	2.5495112
RUSSIE	ARKEMA REPRESENTATIVE OFFICE IN CIS	13	AGENCE COMMERCIALE	MOSCOU	55.7282153	37.6106922
POLOGNE	ARKEMA SP. Z O O	18	SIEGE SOCIAL	INOWROC£AW	51.1140053	17.034463
POLOGNE	ARKEMA SP. Z O O	42	USINE DE PRODUCTION	INOWROC³AW	52.76722760000001	18.2599205
ITALIE	ARKEMA SRL SOCIO UNICO	59	USINE DE PRODUCTION	ANAGNI	41.745324	13.1513636
ITALIE	ARKEMA SRL SOCIO UNICO	88	USINE DE PRODUCTION	BORETTO	44.9009472	10.5578961
ITALIE	ARKEMA SRL SOCIO UNICO	19	USINE DE PRODUCTION	FICAROLO	44.9541498	11.4364526
ITALIE	ARKEMA SRL SOCIO UNICO	57	USINE DE PRODUCTION	GISSI	42.0401335	14.5538744
ITALIE	ARKEMA SRL SOCIO UNICO	51	USINE DE PRODUCTION	VENEZIA	45.469429	12.2400678
ITALIE	ARKEMA SRL SOCIO UNICO	207	USINE DE PRODUCTION	RHO	45.5353029	9.0551608
ITALIE	ARKEMA SRL SOCIO UNICO	58	SIEGE SOCIAL	RHO (MI)	45.5353029	9.0551608
ITALIE	ARKEMA SRL SOCIO UNICO	63	USINE DE PRODUCTION	ALESSANDRIA (AL)	44.9072727	8.6116796
TCHEQUIE	ARKEMA SRO	8	AGENCE COMMERCIALE	PRAGUE, CZECH REPUBLIC	50.07515249999999	14.4375259
MALAISIE	ARKEMA THIOCHEMICALS SDN BHD	126	USINE DE PRODUCTION	KERTEH KEMAMAN TERENGGANU MALAYSIA	4.538693299999999	103.4280586
MALAISIE	ARKEMA THIOCHEMICALS SDN BHD	6	SIEGE SOCIAL	PETALING JAYA - SELANGOR	3.1136631	101.5999816
CHINE	CASDA BIOMATERIALS CO. LTD	446	USINE DE PRODUCTION	HENGSHUI	37.7352097	115.6986949
SUISSE	FEBEX	55	SIEGE SOCIAL	BEX	46.2499149	7.0671861
CHINE	LAMBSON CHINA LTD	1	AGENCE COMMERCIALE	SHANGHAI, CHINA, 201107	31.207384	121.2943049
ROYAUME-UNI	LAMBSON LTD HQ	35	SIEGE SOCIAL	WETHERBY - WEST YORKSHIRE- LS22 7NS, UK	53.9326405	-1.3816187
CHINE	SARTOMER (GUANGZHOU) CHEMICALS COMPANY LTD	157	USINE DE PRODUCTION	GUANGZHOU	22.833623	113.5005396
CORÉE DU SUD	SEKI ARKEMA	40	SIEGE SOCIAL	HAMAN-GUN, KYUNGNAM	35.3310258	128.4955043
CHINE	TAIXING SUNKE CHEMICALS CO., LTD.	361	USINE DE PRODUCTION	TAIXING CITY, JIANGSU PROVINCE, PR CHINA	32.1711898	120.020568
ARGENTINE	VETEK SA	22	SIEGE SOCIAL	CIUDAD DE BUENOS AIRES 	-34.639533	-58.363507
ARGENTINE	VETEK SA	5	AGENCE COMMERCIALE	CAPILLA DEL SENOR	-34.29266	-59.101039
ARGENTINE	VETEK SA	12	USINE DE PRODUCTION	CARLOS CASARES	-35.622887	-61.364307
FRANCE	ARRMAZ CHEMICALS SAS	5	SIEGE SOCIAL	COLOMBES	48.9237226	2.2431251
BRÉSIL	ARRMAZ DO BRAZIL	26	SIEGE SOCIAL	DUQUE DE CAXIAS – RJ – CEP 25243-150	-22.6677244	-43.2977691
ÉMIRATS ARABES UNIS	ARRMAZ GULF CHEMICALS, LTD	45	SIEGE SOCIAL	AL KHOBAR 31952	26.2171906	50.1971381
MAROC	ARRMAZ MOROC	15	SIEGE SOCIAL	CALIFORNIE – CASABLANCA 20100	33.5282271	-7.621078600000001
ETATS-UNIS	ARRMAZ PRODUCTS L.P.	188	SIEGE SOCIAL	MULBERRY, FLORIDA USA 33860	27.8953038	-81.9734172
ETATS-UNIS	ARRMAZ ROAD SCIENCE 	30	SIEGE SOCIAL	TULSA, OKLAHOMA USA  74136	36.0613546	-95.9515399
CHINE	ARRMAZ YUNNAN	80	SIEGE SOCIAL	YUNNAN	25.0665692	102.7262344
ESPAGNE	AFINITICA PROCESS TECHNOLOGY S.L.	3	CENTRE R&D	CERDANYOLA DEL VALLèS (BARCELONA)	41.49733519999999	2.0910377
ESPAGNE	AFINITICA TECHNOLOGIES S.L.	19	CENTRE TECHNIQUE	CERDANYOLA DEL VALLèS (BARCELONA)	41.49733519999999	2.0910377
THAILANDE	BOSTIK (THAILAND) CO., LTD	10	SIEGE SOCIAL	BANGKOK	13.6741713	100.608395
DANEMARK	BOSTIK A/S	3	AGENCE COMMERCIALE	GLOSTRUP	55.6814823	12.4121207
SUEDE	BOSTIK AB	92	SIEGE SOCIAL	HELSINGBORG	56.0464674	12.6945121
ARGENTINE	BOSTIK ARGENTINA SA	6	SIEGE SOCIAL	CIUDAD DE BUENOS AIRES	-34.639533	-58.363507
NORVEGE	BOSTIK AS	4	AGENCE COMMERCIALE	NA	67.9931452	13.6397069
AUSTRALIE	BOSTIK AUSTRALIA PTY LTD	32	USINE DE PRODUCTION	KINGS PARK	-33.7457198	150.9047417
AUSTRALIE	BOSTIK AUSTRALIA PTY LTD	6	AGENCE COMMERCIALE	MEADOWBROOK	-27.6678291	153.1395015
AUSTRALIE	BOSTIK AUSTRALIA PTY LTD	1	AGENCE COMMERCIALE	ESSENDON FIELDS	-37.7263122	144.8968793
AUSTRALIE	BOSTIK AUSTRALIA PTY LTD	50	USINE DE PRODUCTION	THOMASTOWN	-37.6837819	145.0107588
AUSTRALIE	BOSTIK AUSTRALIA PTY LTD	59	SIEGE SOCIAL	ESSENDON FIELDS	-37.7263122	144.8968793
AUSTRALIE	BOSTIK AUSTRALIA PTY LTD	2	AGENCE COMMERCIALE	ESSENDON FIELDS	-37.7263122	144.8968793
BELGIQUE	BOSTIK BELUX NV SA	18	AGENCE COMMERCIALE	GENT	51.06783069999999	3.7290914
PAYS-BAS	BOSTIK BV (HERTOGENBOSCH)	70	AGENCE COMMERCIALE	'S-HERTOGENBOSCH	51.6849853	5.3593943
CANADA	BOSTIK CANADA LTD	3	SIEGE SOCIAL	MONTREAL	45.573978	-73.60949389999999
FRANCE	BOSTIK DURABLE GOODS BU	12	USINE DE PRODUCTION	LE BARP	44.64191049999999	-0.7342734
EGYPTE	BOSTIK EGYPT FOR PRODUCTION OF ADHESIVES S.A.E.	24	USINE DE PRODUCTION	GIZA	30.0130557	31.2088526
ESPAGNE	BOSTIK ESPAÑA	28	USINE DE PRODUCTION	RUBI	41.724761	1.8247278
CHINE	BOSTIK FINDLEY CHINA CO, LTD	155	USINE DE PRODUCTION	GUANGZHOU	23.1783011	113.5964855
MALAISIE	BOSTIK FINDLEY MALAYSIA SDN-BHD	8	USINE DE PRODUCTION	JOHOR	1.5250153	103.6478486
MALAISIE	BOSTIK FINDLEY MALAYSIA SDN-BHD	109	SIEGE SOCIAL	SEREMBAN	2.6994528	101.9798888
MALAISIE	BOSTIK FINDLEY MALAYSIA SDN-BHD	2	AGENCE COMMERCIALE	SINGAPORE	1.3353181	103.7470628
ALLEMAGNE	BOSTIK GMBH	94	SIEGE SOCIAL	BORGHOLZHAUSEN	52.1025558	8.2813014
ALLEMAGNE	BOSTIK GMBH	221	USINE DE PRODUCTION	BORGHOLZHAUSEN	52.1025558	8.2813014
ALLEMAGNE	BOSTIK GMBH	15	USINE DE PRODUCTION	WIESMOOR	53.4113669	7.7248722
ALLEMAGNE	BOSTIK GMBH	8	AGENCE COMMERCIALE	WELS	48.1624296	14.013313
CHINE	BOSTIK HOLDING HONG KONG LIMITED	2	AGENCE COMMERCIALE	HONG KONG	22.3193039	114.1693611
ETATS-UNIS	BOSTIK INC	1	AGENCE COMMERCIALE	EXPATS IN CHINA	43.0513426	-88.0411993
ETATS-UNIS	BOSTIK INC	3	CENTRE TECHNIQUE	ANN ARBOR	42.2129167	-83.7305392
ETATS-UNIS	BOSTIK INC	13	USINE DE PRODUCTION	CALHOUN	34.502587	-84.9510542
ETATS-UNIS	BOSTIK INC	83	USINE DE PRODUCTION	CONYERS	33.6676103	-84.01769039999999
ETATS-UNIS	BOSTIK INC	13	USINE DE PRODUCTION	DALLAS	32.7762864	-96.6958939
ETATS-UNIS	BOSTIK INC	45	USINE DE PRODUCTION	DALTON	34.7787365	-84.9193082
ETATS-UNIS	BOSTIK INC	59	USINE DE PRODUCTION	GREENVILLE	34.8742328	-82.33433749999999
ETATS-UNIS	BOSTIK INC	74	USINE DE PRODUCTION	GREENVILLE	34.8742328	-82.33433749999999
ETATS-UNIS	BOSTIK INC	22	USINE DE PRODUCTION	WAUWATOSA	43.0513426	-88.0411993
ETATS-UNIS	BOSTIK INC	50	USINE DE PRODUCTION	LOUISVILLE	38.1495841	-85.8793252
ETATS-UNIS	BOSTIK INC	91	USINE DE PRODUCTION	MIDDLETON	42.6007246	-71.014118
ETATS-UNIS	BOSTIK INC	39	USINE DE PRODUCTION	WEST DEPFORD	39.8378991	-75.2362381
ETATS-UNIS	BOSTIK INC	9	USINE DE PRODUCTION	DISPUTANTA	37.124332	-77.22637399999999
ETATS-UNIS	BOSTIK INC	68	AGENCE COMMERCIALE	VARIOUS HOME OFFICE LOCATIONS ACROSS USA	43.0513426	-88.0411993
ETATS-UNIS	BOSTIK INC	29	USINE DE PRODUCTION	TEMECULA	33.4767802	-117.1970557
ETATS-UNIS	BOSTIK INC	235	CENTRE R&D	WAUWATOSA	43.0513426	-88.0411993
INDE	BOSTIK INDIA PRIVATE LTD	66	USINE DE PRODUCTION	BANGALORE	12.8124199	77.69403150000001
INDE	BOSTIK INDIA PRIVATE LTD	43	USINE DE PRODUCTION	JHAGADIA	21.719148	73.14975489999999
INDE	BOSTIK INDIA PRIVATE LTD	55	SIEGE SOCIAL	BANGALORE	12.8124199	77.69403150000001
INDE	BOSTIK INDIA PRIVATE LTD	19	AGENCE COMMERCIALE	INDIA	26.4870674	80.34915989999999
INDE	BOSTIK INDIA PRIVATE LTD	7	AGENCE COMMERCIALE	CHENNAI	13.0920727	80.1944807
INDE	BOSTIK INDIA PRIVATE LTD	17	AGENCE COMMERCIALE	NEW DELHI	28.6482162	77.1640718
INDE	BOSTIK INDIA PRIVATE LTD	9	AGENCE COMMERCIALE	MUMBAI	19.1570343	72.93274439999999
EIRE	BOSTIK INDUSTRIES LIMITED	26	AGENCE COMMERCIALE	CO DUBLIN	53.3498053	-6.2603097
TURQUIE	BOSTIK KIMYA SANAYI VE TICARET A.S	25	SIEGE SOCIAL	ISTANBUL	41.0628433	28.986339
TURQUIE	BOSTIK KIMYA SANAYI VE TICARET A.S	15	USINE DE PRODUCTION	TEKIRDAG	40.9780919	27.511674
TURQUIE	BOSTIK KIMYA SANAYI VE TICARET A.S	13	USINE DE PRODUCTION	BURSA	40.1885281	29.0609636
CORÉE DU SUD	BOSTIK KOREA LIMITED	14	SIEGE SOCIAL	SEOUL 	37.566535	126.9779692
ROYAUME-UNI	BOSTIK LIMITED	1	SIEGE SOCIAL	NORTH YORKSHIRE	54.1731894	-1.3616483
ROYAUME-UNI	BOSTIK LIMITED	29	USINE DE PRODUCTION	NORTH YORKSHIRE	54.1731894	-1.3616483
ROYAUME-UNI	BOSTIK LIMITED	18	SIEGE SOCIAL	LEICESTER	52.6459869	-1.1142766
ROYAUME-UNI	BOSTIK LIMITED	43	USINE DE PRODUCTION	LEICESTER	52.6459869	-1.1142766
ROYAUME-UNI	BOSTIK LIMITED	175	SIEGE SOCIAL	STAFFORD	52.82820839999999	-2.1162826
ROYAUME-UNI	BOSTIK LIMITED	142	USINE DE PRODUCTION	STAFFORD	52.82820839999999	-2.1162826
RUSSIE	BOSTIK LLC	52	AGENCE COMMERCIALE	MOSCOW	55.7949959	37.6014001
PAYS-BAS	BOSTIK NEDERLAND BV	70	USINE DE PRODUCTION	ROOSENDAAL	51.5441115	4.4948595
NOUVELLE ZÉLANDE	BOSTIK NEW ZEALAND LTD	17	SIEGE SOCIAL	AUCKLAND	-36.85088270000001	174.7644881
NOUVELLE ZÉLANDE	BOSTIK NEW ZEALAND LTD	35	USINE DE PRODUCTION	LOWER HUTT	-41.16745	174.9973546
JAPON	BOSTIK NITTA CO. LTD	62	AGENCE COMMERCIALE	YAO, OSAKA	34.5985289	135.6190172
FINLANDE	BOSTIK OY	3	AGENCE COMMERCIALE	NA	38.8985658	-77.04428419999999
PHILIPPINES	BOSTIK PHILIPPINES	91	SIEGE SOCIAL	PASIG CITY	14.5763768	121.0851097
PHILIPPINES	BOSTIK PHILIPPINES	15	USINE DE PRODUCTION	CAGAYAN DE ORO	8.4542363	124.6318977
PHILIPPINES	BOSTIK PHILIPPINES	93	USINE DE PRODUCTION	TANAY RIZAL	14.5797053	121.3312882
PHILIPPINES	BOSTIK PHILIPPINES	6	USINE DE PRODUCTION	TAYTAY RIZAL	14.5585549	121.1360819
FRANCE	BOSTIK SA	130	CENTRE R&D	VENETTE	49.4277351	2.8127225
FRANCE	BOSTIK SA	117	USINE DE PRODUCTION	AVELIN	50.52418669999999	3.0990212
FRANCE	BOSTIK SA	4	USINE DE PRODUCTION	COLMAR CEDEX	48.0793589	7.358511999999999
FRANCE	BOSTIK SA	99	USINE DE PRODUCTION	COUBERT	48.671688	2.695835
FRANCE	BOSTIK SA	51	USINE DE PRODUCTION	PRIVAS	44.735269	4.599038999999999
FRANCE	BOSTIK SA	159	USINE DE PRODUCTION	RIBECOURT CEDEX	49.51035599999999	2.922679
FRANCE	BOSTIK SA	33	USINE DE PRODUCTION	SAINVILLE	48.415133	1.880156
FRANCE	BOSTIK SA	312	SIEGE SOCIAL	LA PLAINE SAINT DENIS	48.9122322	2.3614119
MEXIQUE	BOSTIK SERVICIOS MEXICO S.A. DE C.V.	62	SIEGE SOCIAL	NAUCALPAN	19.4744572	-99.22452369999999
MEXIQUE	BOSTIK SERVICIOS MEXICO S.A. DE C.V.	107	USINE DE PRODUCTION	NAUCALPAN	19.4744572	-99.22452369999999
MEXIQUE	BOSTIK SERVICIOS MEXICO S.A. DE C.V.	101	USINE DE PRODUCTION	MONTERREY	25.7589438	-100.1619222
CHINE	BOSTIK SHANGHAI MANAGEMENT, CO LTD	201	SIEGE SOCIAL	SHANGHAI	31.0808739	121.4190899
POLOGNE	BOSTIK SP Z O O	64	AGENCE COMMERCIALE	TARNOWO PODGÓRNE	52.4626443	16.6734164
VIETNAM	BOSTIK VIETNAM COMPANY LIMITED	9	USINE DE PRODUCTION	BINH DUONG	11.3254024	106.477017
CHINE	JIANGSU BOSTIK ADHESIVE CO	116	USINE DE PRODUCTION	CHANGSHU	31.6984578	121.0157967
ALLEMAGNE	MEM BAUCHEMIE GMBH	72	SIEGE SOCIAL	LEER	53.2551971	7.451357799999999
FRANCE	PROCHIMIR SAS	26	USINE DE PRODUCTION	SEVREMONT	46.8282859	-0.8372508999999999
FRANCE	PROCHIMIR SAS	42	SIEGE SOCIAL	POUZAUGES	46.78264799999999	-0.837243
INDONÉSIE	PT BOSTIK INDONESIA	18	SIEGE SOCIAL	JAKARTA	-6.2135191	106.8222625
MAROC	SOCIETE MAROCAINE DES COLLES	66	SIEGE SOCIAL	CASABLANCA	33.5731104	-7.589843399999999
ROYAUME-UNI	SOVEREIGN CHEMICALS LIMITED	50	SIEGE SOCIAL	BARROW-IN-FURNESS	54.1438792	-3.2302821
BRÉSIL	USINA FORTALEZA INDUSTRIA E COMERCIO DE MASSA FINA LTDA	16	USINE DE PRODUCTION	ARARAQUARA/ SP	-21.7830499	-48.2243666
BRÉSIL	USINA FORTALEZA INDUSTRIA E COMERCIO DE MASSA FINA LTDA	22	SIEGE SOCIAL	SÃO ROQUE/SP	-23.5068655	-47.14367499999999
BRÉSIL	USINA FORTALEZA INDUSTRIA E COMERCIO DE MASSA FINA LTDA	1	USINE DE PRODUCTION	QUEIMADOS/ RJ	-22.7160435	-43.5569907
BRÉSIL	USINA FORTALEZA INDUSTRIA E COMERCIO DE MASSA FINA LTDA	24	SIEGE SOCIAL	SÃO ROQUE/ SP	-23.5068655	-47.14367499999999
BRÉSIL	USINA FORTALEZA INDUSTRIA E COMERCIO DE MASSA FINA LTDA	151	USINE DE PRODUCTION	SÃO ROQUE SP	-23.5068655	-47.14367499999999
BRÉSIL	ARKEMA COATEX BRASIL INDÚSTRIA E COMÉRCIO LTDA	1	SIEGE SOCIAL	SÃO PAULO	-21.2922457	-50.3428431
BRÉSIL	ARKEMA COATEX BRASIL INDÚSTRIA E COMÉRCIO LTDA	48	USINE DE PRODUCTION	ARACARIGUAMA	-23.437744	-47.0638699
CHINE	CHANGSHU COATEX ADDITIVES CO TLD	101	USINE DE PRODUCTION	CHANGSHU, JIANGSU PROVINCE	31.7879072	120.7636612
CORÉE DU SUD	COATEX ASIA PACIFIC	3	AGENCE COMMERCIALE	SEOUL	37.566535	126.9779692
SLOVAQUIE	COATEX CEE SRO	6	AGENCE COMMERCIALE	BRATISLAVA	48.1554297	17.1567036
ETATS-UNIS	COATEX INC	51	USINE DE PRODUCTION	CHESTER SC	34.7048613	-81.2142561
PAYS-BAS	COATEX NETHERLANDS BV	21	USINE DE PRODUCTION	MOERDIJK	51.6818606	4.5857886
FRANCE	COATEX SAS	248	SIEGE SOCIAL	GENAY	45.9017563	4.8367097
ALLEMAGNE	BOSTIK AEROSOLS GMBH	88	USINE DE PRODUCTION	REICHENBERG	49.7078573	9.905539899999999
PAYS-BAS	BOSTIK BENELUX B.V	72	USINE DE PRODUCTION	OOSTERHOUT	51.6232623	4.884197599999999
PAYS-BAS	BOSTIK BENELUX B.V	228	USINE DE PRODUCTION	OOSTERHOUT 	51.6232623	4.884197599999999
CROATIE	BOSTIK CROATIA D.O.O	5	AGENCE COMMERCIALE	ZAGREB	45.8150108	15.9819189
GRÈCE	BOSTIK HELLAS S.A.	21	AGENCE COMMERCIALE	PIRAEUS, ATHENES	37.9405556	23.6333333
ROUMANIE	BOSTIK ROMANIA  S.R.L.	6	CENTRE TECHNIQUE	BUFTEA, ILFOV	44.56297439999999	25.9388214
ROUMANIE	BOSTIK ROMANIA  S.R.L.	112	USINE DE PRODUCTION	BUFTEA, ILFOV	44.56297439999999	25.9388214
ROUMANIE	BOSTIK ROMANIA  S.R.L.	11	CENTRE TECHNIQUE	BUFTEA, ILFOV	44.56297439999999	25.9388214
ROUMANIE	BOSTIK ROMANIA  S.R.L.	4	CENTRE TECHNIQUE	BUFTEA, ILFOV	44.56297439999999	25.9388214
ROUMANIE	BOSTIK ROMANIA  S.R.L.	7	CENTRE TECHNIQUE	BUFTEA, ILFOV	44.56297439999999	25.9388214
ROUMANIE	BOSTIK ROMANIA  S.R.L.	12	CENTRE TECHNIQUE	BUFTEA, ILFOV	44.56297439999999	25.9388214
ALLEMAGNE	BOSTIK TECHNOLOGY GMBH	78	USINE DE PRODUCTION	SCHWEPNITZ	51.32922199999999	13.9591927
SINGAPOUR	DEN BRAVEN ASIA PTE LTD. (SINGAPORE)	5	AGENCE COMMERCIALE	SINGAPORE	1.293309	103.860354
BULGARIE	DEN BRAVEN BULGARIA EOOD (BULGARIA)	17	AGENCE COMMERCIALE	ROUSSÉ	43.83557130000001	25.9656554
FRANCE	DEN BRAVEN FRANCE S.A.R.L.	74	USINE DE PRODUCTION	LE MEUX CEDEX	49.3519093	2.7538429
CHILI	DEN BRAVEN LATIN AMERICA SPA	3	AGENCE COMMERCIALE	HUECHURABA, SANTIAGO 	-33.3742128	-70.6367425
PORTUGAL	DEN BRAVEN PRODUTOS QUIM. LDO.	11	AGENCE COMMERCIALE	BRAGA	41.5621957	-8.445861299999999
SUISSE	DEN BRAVEN SCHWEIZ AG	1	AGENCE COMMERCIALE	HERISAU	47.3857009	9.2798472
AUTRICHE	DEN BRAVEN SEALANTS GMBH (AUSTRIA)	10	USINE DE PRODUCTION	WÖLLERSDORF	47.86542	16.16878
AFRIQUE DU SUD	DEN BRAVEN SEALANTS SOUTH AFRICA PTY .LTD.	5	AGENCE COMMERCIALE	JOHANNESBURG	38.8985658	-77.04428419999999
AFRIQUE DU SUD	DEN BRAVEN SEALANTS SOUTH AFRICA PTY .LTD.	3	AGENCE COMMERCIALE	JOHANNESBURG	38.8985658	-77.04428419999999
AFRIQUE DU SUD	DEN BRAVEN SEALANTS SOUTH AFRICA PTY .LTD.	18	AGENCE COMMERCIALE	JOHANNESBURG	38.8985658	-77.04428419999999
MOLDAVIE	DEN BRAVEN SILICONI S.R.L. (MOLDAVIA)	13	AGENCE COMMERCIALE	?	47.411631	28.369885
ROYAUME-UNI	SIROFLEX LTD	14	AGENCE COMMERCIALE	BARNSLEY, SOUTH YORKSHIRE	53.55263	-1.479726
FRANCE	MLPC INTERNATIONAL	216	SIEGE SOCIAL	RION DES LANDES	43.93360699999999	-0.9205629999999999